IRIDIUM 116             
1 43072U 17083C   24127.92401847 -.00000153  00000+0 -61673-4 0  9993
2 43072  86.3921 284.3209 0001983  96.1557 263.9865 14.34216150333622
IRIDIUM 130             
1 43073U 17083D   24127.89230364 -.00000071  00000+0 -32331-4 0  9992
2 43073  86.3928 284.5349 0001984  89.1227 271.0196 14.34215729333565
IRIDIUM 151             
1 43074U 17083E   24127.93668961  .00000452  00000+0  15446-3 0  9994
2 43074  86.3923 284.3560 0002503  97.5375 262.6105 14.34216498333592
IRIDIUM 141             
1 43077U 17083H   24127.91132876  .00000067  00000+0  16816-4 0  9991
2 43077  86.3923 284.3156 0002260  92.2374 267.9080 14.34218896333625
IRIDIUM 153             
1 43078U 17083J   24127.86351641  .00000484  00000+0  16591-3 0  9991
2 43078  86.3965 252.7762 0002620  88.7133 271.4363 14.34220407334724
IRIDIUM 131             
1 43079U 17083K   24127.89864811 -.00000121  00000+0 -50143-4 0  9995
2 43079  86.3927 284.4558 0002099  97.8918 262.2516 14.34216477333550
